[{"OBJECT_NAME":"SAUDISAT 5A","OBJECT_ID":"2018-102A","EPOCH":"2026-03-09T23:40:00.596928","MEAN_MOTION":15.26941021,"ECCENTRICITY":0.00113651,"INCLINATION":97.3185,"RA_OF_ASC_NODE":132.4981,"ARG_OF_PERICENTER":121.7113,"MEAN_ANOMALY":238.5235,"EPHEMERIS_TYPE":0,"CLASSIFICATION_TYPE":"U","NORAD_CAT_ID":43831,"ELEMENT_SET_NO":999,"REV_AT_EPOCH":40053,"BSTAR":0.00030305233,"MEAN_MOTION_DOT":7.96e-5,"MEAN_MOTION_DDOT":0},{"OBJECT_NAME":"STARLINK-33639","OBJECT_ID":"2025-070X","EPOCH":"2026-03-09T22:30:39.791520","MEAN_MOTION":15.27591831,"ECCENTRICITY":0.00020486,"INCLINATION":43.0026,"RA_OF_ASC_NODE":254.9733,"ARG_OF_PERICENTER":264.6736,"MEAN_ANOMALY":95.3881,"EPHEMERIS_TYPE":0,"CLASSIFICATION_TYPE":"U","NORAD_CAT_ID":63481,"ELEMENT_SET_NO":999,"REV_AT_EPOCH":5305,"BSTAR":0.00088641974,"MEAN_MOTION_DOT":0.0002422,"MEAN_MOTION_DDOT":0}]
